TRANSPORTER-12 OBJECT AZ
1 62656U 25009AZ  26068.71026235  .00016057  00000+0  54903-3 0  9991
2 62656  97.3981 151.9913 0000987  45.3581 314.7740 15.30349724 63792
STARLINK-34206          
1 66098U 25236N   26068.38170772  .00027172  00000+0  92635-3 0  9990
2 66098  53.1580 105.5726 0001101  76.4635 283.6489 15.30194554 22880
